DUPLEX                  
1 66906U 98067XS  26106.63515160  .00018768  00000+0  24552-3 0  9999
2 66906  51.6286 239.2925 0003971 300.3644  59.6956 15.58653454 21042
ISS OBJECT XT           
1 66907U 98067XT  26106.60099162  .00263615  00000+0  96464-3 0  9990
2 66907  51.6205 229.9801 0010771 319.4356  40.5845 15.87020929 21166
ISS OBJECT XU           
1 66908U 98067XU  26106.59257611  .00268364  00000+0  95752-3 0  9999
2 66908  51.6204 229.9191 0010658 318.8419  41.1781 15.87523968 21162
SILVERSAT               
1 66909U 98067XV  26106.56755711  .00764812  28915-3  12799-2 0  9998
2 66909  51.6139 227.4458 0014274 326.0751  33.9346 16.02081806 21194
ISS OBJECT XW           
1 66910U 98067XW  26106.57295227  .00197109  00000+0  85893-3 0  9998
2 66910  51.6192 230.5385 0009967 314.5361  45.4827 15.83585755 21159
ISS OBJECT XY           
1 66912U 98067XY  26106.63517949  .00083369  00000+0  62010-3 0  9993
2 66912  51.6239 234.0144 0006809 310.1757  49.8644 15.72063795 21101
KNACKSAT-2              
1 67683U 98067XZ  26106.74661488  .00026591  00000+0  39429-3 0  9991
2 67683  51.6301 242.2898 0011586 329.6491  30.3828 15.54969579 10700
CORAL                   
1 67684U 98067YA  26106.74352069  .00061558  00000+0  71344-3 0  9998
2 67684  51.6281 240.7657 0015211 321.9707  38.0212 15.61076474 10723
GXIBA-1                 
1 67685U 98067YB  26106.66443088  .00030658  00000+0  44077-3 0  9992
2 67685  51.6298 242.4910 0013527 326.2315  33.7814 15.55704875 10696
UITMSAT-2               
1 67686U 98067YC  26106.63530131  .00036095  00000+0  49191-3 0  9999
2 67686  51.6298 242.2975 0010433 304.9832  55.0179 15.57108041 10692
HMU-SAT2                
1 67687U 98067YD  26106.67281269  .00028627  00000+0  41769-3 0  9994
2 67687  51.6307 242.5514 0009794 306.9962  53.0132 15.55389987 10617
LEOPARD                 
1 67688U 98067YE  26106.64858254  .00033379  00000+0  46655-3 0  9995
2 67688  51.6302 242.3879 0010039 305.5314  54.4741 15.56470184 10617
CREW DRAGON 12          
1 67796U 26031A   26106.84451400  .00004242  00000+0  85733-4 0  9999
2 67796  51.6329 243.6903 0006573 315.5681  44.4780 15.48789484562299
PROGRESS-MS 33          
1 68319U 26058A   26106.84451400  .00004242  00000+0  85733-4 0  9990
2 68319  51.6329 243.6903 0006573 315.5681  44.4780 15.48789484  3167
CYGNUS NG-24            
1 68689U 26079A   26106.84451400  .00004242  00000+0  85733-4 0  9993
2 68689  51.6329 243.6903 0006573 315.5681  44.4780 15.48789484   771
