[{"OBJECT_NAME":"DUPLEX","OBJECT_ID":"1998-067XS","EPOCH":"2026-04-16T15:14:37.098240","MEAN_MOTION":15.58653454,"ECCENTRICITY":0.0003971,"INCLINATION":51.6286,"RA_OF_ASC_NODE":239.2925,"ARG_OF_PERICENTER":300.3644,"MEAN_ANOMALY":59.6956,"EPHEMERIS_TYPE":0,"CLASSIFICATION_TYPE":"U","NORAD_CAT_ID":66906,"ELEMENT_SET_NO":999,"REV_AT_EPOCH":2104,"BSTAR":0.00024551778,"MEAN_MOTION_DOT":0.00018768,"MEAN_MOTION_DDOT":0},{"OBJECT_NAME":"ISS OBJECT XT","OBJECT_ID":"1998-067XT","EPOCH":"2026-04-16T14:25:25.675968","MEAN_MOTION":15.87020929,"ECCENTRICITY":0.00107718,"INCLINATION":51.6205,"RA_OF_ASC_NODE":229.9801,"ARG_OF_PERICENTER":319.4356,"MEAN_ANOMALY":40.5845,"EPHEMERIS_TYPE":0,"CLASSIFICATION_TYPE":"U","NORAD_CAT_ID":66907,"ELEMENT_SET_NO":999,"REV_AT_EPOCH":2116,"BSTAR":0.00096464361,"MEAN_MOTION_DOT":0.00263615,"MEAN_MOTION_DDOT":0},{"OBJECT_NAME":"ISS OBJECT XU","OBJECT_ID":"1998-067XU","EPOCH":"2026-04-16T14:13:18.575904","MEAN_MOTION":15.87523968,"ECCENTRICITY":0.00106582,"INCLINATION":51.6204,"RA_OF_ASC_NODE":229.9191,"ARG_OF_PERICENTER":318.8419,"MEAN_ANOMALY":41.1781,"EPHEMERIS_TYPE":0,"CLASSIFICATION_TYPE":"U","NORAD_CAT_ID":66908,"ELEMENT_SET_NO":999,"REV_AT_EPOCH":2116,"BSTAR":0.00095752459,"MEAN_MOTION_DOT":0.00268364,"MEAN_MOTION_DDOT":0},{"OBJECT_NAME":"SILVERSAT","OBJECT_ID":"1998-067XV","EPOCH":"2026-04-16T13:37:16.934304","MEAN_MOTION":16.02081806,"ECCENTRICITY":0.00142748,"INCLINATION":51.6139,"RA_OF_ASC_NODE":227.4458,"ARG_OF_PERICENTER":326.0751,"MEAN_ANOMALY":33.9346,"EPHEMERIS_TYPE":0,"CLASSIFICATION_TYPE":"U","NORAD_CAT_ID":66909,"ELEMENT_SET_NO":999,"REV_AT_EPOCH":2119,"BSTAR":0.0012799304,"MEAN_MOTION_DOT":0.00764812,"MEAN_MOTION_DDOT":0.00028915268},{"OBJECT_NAME":"ISS OBJECT XW","OBJECT_ID":"1998-067XW","EPOCH":"2026-04-16T13:45:03.076128","MEAN_MOTION":15.83585755,"ECCENTRICITY":0.0009967,"INCLINATION":51.6192,"RA_OF_ASC_NODE":230.5385,"ARG_OF_PERICENTER":314.5361,"MEAN_ANOMALY":45.4827,"EPHEMERIS_TYPE":0,"CLASSIFICATION_TYPE":"U","NORAD_CAT_ID":66910,"ELEMENT_SET_NO":999,"REV_AT_EPOCH":2115,"BSTAR":0.00085892576,"MEAN_MOTION_DOT":0.00197109,"MEAN_MOTION_DDOT":0},{"OBJECT_NAME":"ISS OBJECT XY","OBJECT_ID":"1998-067XY","EPOCH":"2026-04-16T15:14:39.507936","MEAN_MOTION":15.72063795,"ECCENTRICITY":0.00068096,"INCLINATION":51.6239,"RA_OF_ASC_NODE":234.0144,"ARG_OF_PERICENTER":310.1757,"MEAN_ANOMALY":49.8644,"EPHEMERIS_TYPE":0,"CLASSIFICATION_TYPE":"U","NORAD_CAT_ID":66912,"ELEMENT_SET_NO":999,"REV_AT_EPOCH":2110,"BSTAR":0.00062009502,"MEAN_MOTION_DOT":0.00083369,"MEAN_MOTION_DDOT":0},{"OBJECT_NAME":"KNACKSAT-2","OBJECT_ID":"1998-067XZ","EPOCH":"2026-04-16T17:55:07.525632","MEAN_MOTION":15.54969579,"ECCENTRICITY":0.00115866,"INCLINATION":51.6301,"RA_OF_ASC_NODE":242.2898,"ARG_OF_PERICENTER":329.6491,"MEAN_ANOMALY":30.3828,"EPHEMERIS_TYPE":0,"CLASSIFICATION_TYPE":"U","NORAD_CAT_ID":67683,"ELEMENT_SET_NO":999,"REV_AT_EPOCH":1070,"BSTAR":0.00039429426,"MEAN_MOTION_DOT":0.00026591,"MEAN_MOTION_DDOT":0},{"OBJECT_NAME":"CORAL","OBJECT_ID":"1998-067YA","EPOCH":"2026-04-16T17:50:40.187616","MEAN_MOTION":15.61076474,"ECCENTRICITY":0.00152119,"INCLINATION":51.6281,"RA_OF_ASC_NODE":240.7657,"ARG_OF_PERICENTER":321.9707,"MEAN_ANOMALY":38.0212,"EPHEMERIS_TYPE":0,"CLASSIFICATION_TYPE":"U","NORAD_CAT_ID":67684,"ELEMENT_SET_NO":999,"REV_AT_EPOCH":1072,"BSTAR":0.00071344125,"MEAN_MOTION_DOT":0.00061558,"MEAN_MOTION_DDOT":0},{"OBJECT_NAME":"GXIBA-1","OBJECT_ID":"1998-067YB","EPOCH":"2026-04-16T15:56:46.828032","MEAN_MOTION":15.55704875,"ECCENTRICITY":0.00135275,"INCLINATION":51.6298,"RA_OF_ASC_NODE":242.491,"ARG_OF_PERICENTER":326.2315,"MEAN_ANOMALY":33.7814,"EPHEMERIS_TYPE":0,"CLASSIFICATION_TYPE":"U","NORAD_CAT_ID":67685,"ELEMENT_SET_NO":999,"REV_AT_EPOCH":1069,"BSTAR":0.00044076787,"MEAN_MOTION_DOT":0.00030658,"MEAN_MOTION_DDOT":0},{"OBJECT_NAME":"UITMSAT-2","OBJECT_ID":"1998-067YC","EPOCH":"2026-04-16T15:14:50.033184","MEAN_MOTION":15.57108041,"ECCENTRICITY":0.00104337,"INCLINATION":51.6298,"RA_OF_ASC_NODE":242.2975,"ARG_OF_PERICENTER":304.9832,"MEAN_ANOMALY":55.0179,"EPHEMERIS_TYPE":0,"CLASSIFICATION_TYPE":"U","NORAD_CAT_ID":67686,"ELEMENT_SET_NO":999,"REV_AT_EPOCH":1069,"BSTAR":0.00049191373,"MEAN_MOTION_DOT":0.00036095,"MEAN_MOTION_DDOT":0},{"OBJECT_NAME":"HMU-SAT2","OBJECT_ID":"1998-067YD","EPOCH":"2026-04-16T16:08:51.016416","MEAN_MOTION":15.55389987,"ECCENTRICITY":0.0009794,"INCLINATION":51.6307,"RA_OF_ASC_NODE":242.5514,"ARG_OF_PERICENTER":306.9962,"MEAN_ANOMALY":53.0132,"EPHEMERIS_TYPE":0,"CLASSIFICATION_TYPE":"U","NORAD_CAT_ID":67687,"ELEMENT_SET_NO":999,"REV_AT_EPOCH":1061,"BSTAR":0.00041768999,"MEAN_MOTION_DOT":0.00028627,"MEAN_MOTION_DDOT":0},{"OBJECT_NAME":"LEOPARD","OBJECT_ID":"1998-067YE","EPOCH":"2026-04-16T15:33:57.531456","MEAN_MOTION":15.56470184,"ECCENTRICITY":0.00100392,"INCLINATION":51.6302,"RA_OF_ASC_NODE":242.3879,"ARG_OF_PERICENTER":305.5314,"MEAN_ANOMALY":54.4741,"EPHEMERIS_TYPE":0,"CLASSIFICATION_TYPE":"U","NORAD_CAT_ID":67688,"ELEMENT_SET_NO":999,"REV_AT_EPOCH":1061,"BSTAR":0.00046655482,"MEAN_MOTION_DOT":0.00033379,"MEAN_MOTION_DDOT":0},{"OBJECT_NAME":"CREW DRAGON 12","OBJECT_ID":"2026-031A","EPOCH":"2026-04-16T20:16:06.009600","MEAN_MOTION":15.48789484,"ECCENTRICITY":0.00065733,"INCLINATION":51.6329,"RA_OF_ASC_NODE":243.6903,"ARG_OF_PERICENTER":315.5681,"MEAN_ANOMALY":44.478,"EPHEMERIS_TYPE":0,"CLASSIFICATION_TYPE":"U","NORAD_CAT_ID":67796,"ELEMENT_SET_NO":999,"REV_AT_EPOCH":56229,"BSTAR":8.5733361e-5,"MEAN_MOTION_DOT":4.242e-5,"MEAN_MOTION_DDOT":0},{"OBJECT_NAME":"PROGRESS-MS 33","OBJECT_ID":"2026-058A","EPOCH":"2026-04-16T20:16:06.009600","MEAN_MOTION":15.48789484,"ECCENTRICITY":0.00065733,"INCLINATION":51.6329,"RA_OF_ASC_NODE":243.6903,"ARG_OF_PERICENTER":315.5681,"MEAN_ANOMALY":44.478,"EPHEMERIS_TYPE":0,"CLASSIFICATION_TYPE":"U","NORAD_CAT_ID":68319,"ELEMENT_SET_NO":999,"REV_AT_EPOCH":316,"BSTAR":8.5733361e-5,"MEAN_MOTION_DOT":4.242e-5,"MEAN_MOTION_DDOT":0},{"OBJECT_NAME":"CYGNUS NG-24","OBJECT_ID":"2026-079A","EPOCH":"2026-04-16T20:16:06.009600","MEAN_MOTION":15.48789484,"ECCENTRICITY":0.00065733,"INCLINATION":51.6329,"RA_OF_ASC_NODE":243.6903,"ARG_OF_PERICENTER":315.5681,"MEAN_ANOMALY":44.478,"EPHEMERIS_TYPE":0,"CLASSIFICATION_TYPE":"U","NORAD_CAT_ID":68689,"ELEMENT_SET_NO":999,"REV_AT_EPOCH":77,"BSTAR":8.5733361e-5,"MEAN_MOTION_DOT":4.242e-5,"MEAN_MOTION_DDOT":0}]
